STARLINK-36157          
1 66933U 25286J   25347.25002315 -.01228349  46636-3 -28009-2 0  9999
2 66933  53.1574  48.1327 0000938  79.8577  94.6549 15.96801828  2076
STARLINK-36153          
1 66934U 25286K   25347.25002315 -.01234947  47132-3 -28035-2 0  9992
2 66934  53.1573  48.1297 0001003  72.4777 103.3715 15.96883209  2073
STARLINK-36127          
1 66935U 25286L   25347.25002315 -.01243177  47755-3 -28067-2 0  9994
2 66935  53.1573  48.1267 0000861  81.7353  95.6175 15.96985083  2071
STARLINK-36160          
1 66936U 25286M   25347.25002315 -.01248871  48194-3 -28074-2 0  9997
2 66936  53.1573  48.1243 0000862  86.0793  92.5130 15.97064683  2075
STARLINK-36165          
1 66937U 25286N   25347.25002315 -.01245501  47994-3 -27884-2 0  9990
2 66937  53.1572  48.1214 0001020  74.5439 105.3215 15.97138037  2071
STARLINK-36155          
1 66938U 25286P   25347.25002315 -.01245644  48042-3 -27768-2 0  9995
2 66938  53.1570  48.1186 0000850  87.4801  93.6647 15.97215745  2074
STARLINK-36154          
1 66939U 25286Q   25347.25002315 -.01262928  49355-3 -27877-2 0  9999
2 66939  53.1569  48.1129 0000951  78.1599 105.7509 15.97396944  2076
STARLINK-36121          
1 66940U 25286R   25347.25002315 -.01259779  49168-3 -27697-2 0  9993
2 66940  53.1568  48.1101 0000917  78.1817 106.9573 15.97468585  2077
STARLINK-36088          
1 66941U 25286S   25347.25002315 -.01269552  49789-3 -28140-2 0  9997
2 66941  53.1568  48.1154 0000964  77.4678 105.1499 15.97323075  2077
STARLINK-36100          
1 66942U 25286T   25347.25002315 -.01269485  49904-3 -27783-2 0  9994
2 66942  53.1567  48.1076 0000903  80.9683 105.4570 15.97552498  2007
STARLINK-36109          
1 66943U 25286U   25347.25002315 -.01278112  50576-3 -27818-2 0  9998
2 66943  53.1566  48.1043 0000809  88.7915  99.1485 15.97653770  2009
STARLINK-36112          
1 66944U 25286V   25347.25002315 -.01289195  51421-3 -27937-2 0  9994
2 66944  53.1566  48.1017 0001025  75.1871 113.9674 15.97733928  2079
