CCSDS_OMM_VERS = 2.0
CREATION_DATE  = 
ORIGINATOR     = 

OBJECT_NAME    = STARLINK-36157
OBJECT_ID      = 2025-286J
CENTER_NAME    = EARTH
REF_FRAME      = TEME
TIME_SYSTEM    = UTC
MEAN_ELEMENT_THEORY = SGP/SGP4

EPOCH          = 2025-12-13T06:00:02.000160
MEAN_MOTION    = 15.96801828
ECCENTRICITY   = .00009388
INCLINATION    = 53.1574
RA_OF_ASC_NODE = 48.1327
ARG_OF_PERICENTER = 79.8577
MEAN_ANOMALY   = 94.6549

EPHEMERIS_TYPE = 0
CLASSIFICATION_TYPE = U
NORAD_CAT_ID   = 66933
ELEMENT_SET_NO = 999
REV_AT_EPOCH   = 207
BSTAR          = -.28009159E-2
MEAN_MOTION_DOT = -.1228349E-1
MEAN_MOTION_DDOT = .46635634E-3

CCSDS_OMM_VERS = 2.0
CREATION_DATE  = 
ORIGINATOR     = 

OBJECT_NAME    = STARLINK-36153
OBJECT_ID      = 2025-286K
CENTER_NAME    = EARTH
REF_FRAME      = TEME
TIME_SYSTEM    = UTC
MEAN_ELEMENT_THEORY = SGP/SGP4

EPOCH          = 2025-12-13T06:00:02.000160
MEAN_MOTION    = 15.96883209
ECCENTRICITY   = .00010032
INCLINATION    = 53.1573
RA_OF_ASC_NODE = 48.1297
ARG_OF_PERICENTER = 72.4777
MEAN_ANOMALY   = 103.3715

EPHEMERIS_TYPE = 0
CLASSIFICATION_TYPE = U
NORAD_CAT_ID   = 66934
ELEMENT_SET_NO = 999
REV_AT_EPOCH   = 207
BSTAR          = -.28035484E-2
MEAN_MOTION_DOT = -.1234947E-1
MEAN_MOTION_DDOT = .47132035E-3

CCSDS_OMM_VERS = 2.0
CREATION_DATE  = 
ORIGINATOR     = 

OBJECT_NAME    = STARLINK-36127
OBJECT_ID      = 2025-286L
CENTER_NAME    = EARTH
REF_FRAME      = TEME
TIME_SYSTEM    = UTC
MEAN_ELEMENT_THEORY = SGP/SGP4

EPOCH          = 2025-12-13T06:00:02.000160
MEAN_MOTION    = 15.96985083
ECCENTRICITY   = .00008617
INCLINATION    = 53.1573
RA_OF_ASC_NODE = 48.1267
ARG_OF_PERICENTER = 81.7353
MEAN_ANOMALY   = 95.6175

EPHEMERIS_TYPE = 0
CLASSIFICATION_TYPE = U
NORAD_CAT_ID   = 66935
ELEMENT_SET_NO = 999
REV_AT_EPOCH   = 207
BSTAR          = -.28067139E-2
MEAN_MOTION_DOT = -.1243177E-1
MEAN_MOTION_DDOT = .47755164E-3

CCSDS_OMM_VERS = 2.0
CREATION_DATE  = 
ORIGINATOR     = 

OBJECT_NAME    = STARLINK-36160
OBJECT_ID      = 2025-286M
CENTER_NAME    = EARTH
REF_FRAME      = TEME
TIME_SYSTEM    = UTC
MEAN_ELEMENT_THEORY = SGP/SGP4

EPOCH          = 2025-12-13T06:00:02.000160
MEAN_MOTION    = 15.97064683
ECCENTRICITY   = .0000862
INCLINATION    = 53.1573
RA_OF_ASC_NODE = 48.1243
ARG_OF_PERICENTER = 86.0793
MEAN_ANOMALY   = 92.5130

EPHEMERIS_TYPE = 0
CLASSIFICATION_TYPE = U
NORAD_CAT_ID   = 66936
ELEMENT_SET_NO = 999
REV_AT_EPOCH   = 207
BSTAR          = -.28073847E-2
MEAN_MOTION_DOT = -.1248871E-1
MEAN_MOTION_DDOT = .48193661E-3

CCSDS_OMM_VERS = 2.0
CREATION_DATE  = 
ORIGINATOR     = 

OBJECT_NAME    = STARLINK-36165
OBJECT_ID      = 2025-286N
CENTER_NAME    = EARTH
REF_FRAME      = TEME
TIME_SYSTEM    = UTC
MEAN_ELEMENT_THEORY = SGP/SGP4

EPOCH          = 2025-12-13T06:00:02.000160
MEAN_MOTION    = 15.97138037
ECCENTRICITY   = .000102
INCLINATION    = 53.1572
RA_OF_ASC_NODE = 48.1214
ARG_OF_PERICENTER = 74.5439
MEAN_ANOMALY   = 105.3215

EPHEMERIS_TYPE = 0
CLASSIFICATION_TYPE = U
NORAD_CAT_ID   = 66937
ELEMENT_SET_NO = 999
REV_AT_EPOCH   = 207
BSTAR          = -.27883668E-2
MEAN_MOTION_DOT = -.1245501E-1
MEAN_MOTION_DDOT = .47993794E-3

CCSDS_OMM_VERS = 2.0
CREATION_DATE  = 
ORIGINATOR     = 

OBJECT_NAME    = STARLINK-36155
OBJECT_ID      = 2025-286P
CENTER_NAME    = EARTH
REF_FRAME      = TEME
TIME_SYSTEM    = UTC
MEAN_ELEMENT_THEORY = SGP/SGP4

EPOCH          = 2025-12-13T06:00:02.000160
MEAN_MOTION    = 15.97215745
ECCENTRICITY   = .00008505
INCLINATION    = 53.1570
RA_OF_ASC_NODE = 48.1186
ARG_OF_PERICENTER = 87.4801
MEAN_ANOMALY   = 93.6647

EPHEMERIS_TYPE = 0
CLASSIFICATION_TYPE = U
NORAD_CAT_ID   = 66938
ELEMENT_SET_NO = 999
REV_AT_EPOCH   = 207
BSTAR          = -.27768022E-2
MEAN_MOTION_DOT = -.1245644E-1
MEAN_MOTION_DDOT = .48042439E-3

CCSDS_OMM_VERS = 2.0
CREATION_DATE  = 
ORIGINATOR     = 

OBJECT_NAME    = STARLINK-36154
OBJECT_ID      = 2025-286Q
CENTER_NAME    = EARTH
REF_FRAME      = TEME
TIME_SYSTEM    = UTC
MEAN_ELEMENT_THEORY = SGP/SGP4

EPOCH          = 2025-12-13T06:00:02.000160
MEAN_MOTION    = 15.97396944
ECCENTRICITY   = .00009517
INCLINATION    = 53.1569
RA_OF_ASC_NODE = 48.1129
ARG_OF_PERICENTER = 78.1599
MEAN_ANOMALY   = 105.7509

EPHEMERIS_TYPE = 0
CLASSIFICATION_TYPE = U
NORAD_CAT_ID   = 66939
ELEMENT_SET_NO = 999
REV_AT_EPOCH   = 207
BSTAR          = -.27877017E-2
MEAN_MOTION_DOT = -.1262928E-1
MEAN_MOTION_DDOT = .49355383E-3

CCSDS_OMM_VERS = 2.0
CREATION_DATE  = 
ORIGINATOR     = 

OBJECT_NAME    = STARLINK-36121
OBJECT_ID      = 2025-286R
CENTER_NAME    = EARTH
REF_FRAME      = TEME
TIME_SYSTEM    = UTC
MEAN_ELEMENT_THEORY = SGP/SGP4

EPOCH          = 2025-12-13T06:00:02.000160
MEAN_MOTION    = 15.97468585
ECCENTRICITY   = .00009178
INCLINATION    = 53.1568
RA_OF_ASC_NODE = 48.1101
ARG_OF_PERICENTER = 78.1817
MEAN_ANOMALY   = 106.9573

EPHEMERIS_TYPE = 0
CLASSIFICATION_TYPE = U
NORAD_CAT_ID   = 66940
ELEMENT_SET_NO = 999
REV_AT_EPOCH   = 207
BSTAR          = -.2769667E-2
MEAN_MOTION_DOT = -.1259779E-1
MEAN_MOTION_DDOT = .4916828E-3

CCSDS_OMM_VERS = 2.0
CREATION_DATE  = 
ORIGINATOR     = 

OBJECT_NAME    = STARLINK-36088
OBJECT_ID      = 2025-286S
CENTER_NAME    = EARTH
REF_FRAME      = TEME
TIME_SYSTEM    = UTC
MEAN_ELEMENT_THEORY = SGP/SGP4

EPOCH          = 2025-12-13T06:00:02.000160
MEAN_MOTION    = 15.97323075
ECCENTRICITY   = .00009642
INCLINATION    = 53.1568
RA_OF_ASC_NODE = 48.1154
ARG_OF_PERICENTER = 77.4678
MEAN_ANOMALY   = 105.1499

EPHEMERIS_TYPE = 0
CLASSIFICATION_TYPE = U
NORAD_CAT_ID   = 66941
ELEMENT_SET_NO = 999
REV_AT_EPOCH   = 207
BSTAR          = -.2813975E-2
MEAN_MOTION_DOT = -.1269552E-1
MEAN_MOTION_DDOT = .49789423E-3

CCSDS_OMM_VERS = 2.0
CREATION_DATE  = 
ORIGINATOR     = 

OBJECT_NAME    = STARLINK-36100
OBJECT_ID      = 2025-286T
CENTER_NAME    = EARTH
REF_FRAME      = TEME
TIME_SYSTEM    = UTC
MEAN_ELEMENT_THEORY = SGP/SGP4

EPOCH          = 2025-12-13T06:00:02.000160
MEAN_MOTION    = 15.97552498
ECCENTRICITY   = .00009034
INCLINATION    = 53.1567
RA_OF_ASC_NODE = 48.1076
ARG_OF_PERICENTER = 80.9683
MEAN_ANOMALY   = 105.4570

EPHEMERIS_TYPE = 0
CLASSIFICATION_TYPE = U
NORAD_CAT_ID   = 66942
ELEMENT_SET_NO = 999
REV_AT_EPOCH   = 200
BSTAR          = -.27783171E-2
MEAN_MOTION_DOT = -.1269485E-1
MEAN_MOTION_DDOT = .49903698E-3

CCSDS_OMM_VERS = 2.0
CREATION_DATE  = 
ORIGINATOR     = 

OBJECT_NAME    = STARLINK-36109
OBJECT_ID      = 2025-286U
CENTER_NAME    = EARTH
REF_FRAME      = TEME
TIME_SYSTEM    = UTC
MEAN_ELEMENT_THEORY = SGP/SGP4

EPOCH          = 2025-12-13T06:00:02.000160
MEAN_MOTION    = 15.97653770
ECCENTRICITY   = .00008093
INCLINATION    = 53.1566
RA_OF_ASC_NODE = 48.1043
ARG_OF_PERICENTER = 88.7915
MEAN_ANOMALY   = 99.1485

EPHEMERIS_TYPE = 0
CLASSIFICATION_TYPE = U
NORAD_CAT_ID   = 66943
ELEMENT_SET_NO = 999
REV_AT_EPOCH   = 200
BSTAR          = -.27817756E-2
MEAN_MOTION_DOT = -.1278112E-1
MEAN_MOTION_DDOT = .50576337E-3

CCSDS_OMM_VERS = 2.0
CREATION_DATE  = 
ORIGINATOR     = 

OBJECT_NAME    = STARLINK-36112
OBJECT_ID      = 2025-286V
CENTER_NAME    = EARTH
REF_FRAME      = TEME
TIME_SYSTEM    = UTC
MEAN_ELEMENT_THEORY = SGP/SGP4

EPOCH          = 2025-12-13T06:00:02.000160
MEAN_MOTION    = 15.97733928
ECCENTRICITY   = .0001025
INCLINATION    = 53.1566
RA_OF_ASC_NODE = 48.1017
ARG_OF_PERICENTER = 75.1871
MEAN_ANOMALY   = 113.9674

EPHEMERIS_TYPE = 0
CLASSIFICATION_TYPE = U
NORAD_CAT_ID   = 66944
ELEMENT_SET_NO = 999
REV_AT_EPOCH   = 207
BSTAR          = -.2793665E-2
MEAN_MOTION_DOT = -.1289195E-1
MEAN_MOTION_DDOT = .51421112E-3

